{"type": "FeatureCollection", "features": [ {"type": "Feature", "properties": {"norad_id": 28659, "name": "DIRECTV 8", "group": "intelsat", "lat": 0.02670741282433577, "lon": 118.80827956565982, "alt_km": 35798.8805023412, "timestamp": "2025-12-26T09:30:53.295878+00:00", "meta": {"OBJECT_NAME": "DIRECTV 8", "OBJECT_ID": "2005-019A", "EPOCH": "2025-12-26T04:39:38.472192", "MEAN_MOTION": 1.00271756, "ECCENTRICITY": 0.0003114, "INCLINATION": 0.0128, "RA_OF_ASC_NODE": 55.1123, "ARG_OF_PERICENTER": 229.9878, "MEAN_ANOMALY": 120.7127, "EPHEMERIS_TYPE": 0, "CLASSIFICATION_TYPE": "U", "NORAD_CAT_ID": 28659, "ELEMENT_SET_NO": 999, "REV_AT_EPOCH": 7533, "BSTAR": 0, "MEAN_MOTION_DOT": 2.3e-07, "MEAN_MOTION_DDOT": 0}, "tle": {"line1": "1 28659U 05019A   25360.19419528  .00000023  00000+0  00000+0 0  9993", "line2": "2 28659   0.0128  55.1123 0003114 229.9878 120.7127  1.00271756 75331"}}, "geometry": {"type": "Point", "coordinates": [118.80827956565982, 0.02670741282433577]}}, {"type": "Feature", "properties": {"norad_id": 28702, "name": "GALAXY 28 (G-28)", "group": "intelsat", "lat": 2.7770045652874757, "lon": 156.686662953919, "alt_km": 35692.565561523224, "timestamp": "2025-12-26T09:30:53.295917+00:00", "meta": {"OBJECT_NAME": "GALAXY 28 (G-28)", "OBJECT_ID": "2005-022A", "EPOCH": "2025-12-25T06:15:34.001280", "MEAN_MOTION": 1.00599998, "ECCENTRICITY": 0.0003524, "INCLINATION": 2.8519, "RA_OF_ASC_NODE": 81.1358, "ARG_OF_PERICENTER": 159.6201, "MEAN_ANOMALY": 224.7014, "EPHEMERIS_TYPE": 0, "CLASSIFICATION_TYPE": "U", "NORAD_CAT_ID": 28702, "ELEMENT_SET_NO": 999, "REV_AT_EPOCH": 5023, "BSTAR": 0, "MEAN_MOTION_DOT": -2.29e-06, "MEAN_MOTION_DDOT": 0}, "tle": {"line1": "1 28702U 05022A   25359.26081020 -.00000229  00000+0  00000+0 0  9993", "line2": "2 28702   2.8519  81.1358 0003524 159.6201 224.7014  1.00599998 50230"}}, "geometry": {"type": "Point", "coordinates": [156.686662953919, 2.7770045652874757]}}, {"type": "Feature", "properties": {"norad_id": 29236, "name": "GALAXY 16 (G-16)", "group": "intelsat", "lat": -0.010087132616761715, "lon": 138.81879534225914, "alt_km": 35795.42140328158, "timestamp": "2025-12-26T09:30:53.295942+00:00", "meta": {"OBJECT_NAME": "GALAXY 16 (G-16)", "OBJECT_ID": "2006-023A", "EPOCH": "2025-12-26T02:31:07.100256", "MEAN_MOTION": 1.00269716, "ECCENTRICITY": 0.0002789, "INCLINATION": 0.0031, "RA_OF_ASC_NODE": 236.6116, "ARG_OF_PERICENTER": 40.0302, "MEAN_ANOMALY": 116.978, "EPHEMERIS_TYPE": 0, "CLASSIFICATION_TYPE": "U", "NORAD_CAT_ID": 29236, "ELEMENT_SET_NO": 999, "REV_AT_EPOCH": 7123, "BSTAR": 0, "MEAN_MOTION_DOT": 0, "MEAN_MOTION_DDOT": 0}, "tle": {"line1": "1 29236U 06023A   25360.10494329  .00000000  00000+0  00000+0 0  9999", "line2": "2 29236   0.0031 236.6116 0002789  40.0302 116.9780  1.00269716 71235"}}, "geometry": {"type": "Point", "coordinates": [138.81879534225914, -0.010087132616761715]}}, {"type": "Feature", "properties": {"norad_id": 29494, "name": "DIRECTV 9S", "group": "intelsat", "lat": 1.6038291034436418, "lon": 136.6181117445399, "alt_km": 35796.308994252344, "timestamp": "2025-12-26T09:30:53.295958+00:00", "meta": {"OBJECT_NAME": "DIRECTV 9S", "OBJECT_ID": "2006-043A", "EPOCH": "2025-12-26T01:32:00.300768", "MEAN_MOTION": 1.00271558, "ECCENTRICITY": 0.0003053, "INCLINATION": 1.9726, "RA_OF_ASC_NODE": 83.07, "ARG_OF_PERICENTER": 196.9132, "MEAN_ANOMALY": 96.6295, "EPHEMERIS_TYPE": 0, "CLASSIFICATION_TYPE": "U", "NORAD_CAT_ID": 29494, "ELEMENT_SET_NO": 999, "REV_AT_EPOCH": 4964, "BSTAR": 0, "MEAN_MOTION_DOT": -9.2e-07, "MEAN_MOTION_DDOT": 0}, "tle": {"line1": "1 29494U 06043A   25360.06389237 -.00000092  00000+0  00000+0 0  9995", "line2": "2 29494   1.9726  83.0700 0003053 196.9132  96.6295  1.00271558 49644"}}, "geometry": {"type": "Point", "coordinates": [136.6181117445399, 1.6038291034436418]}}, {"type": "Feature", "properties": {"norad_id": 31307, "name": "GALAXY 17 (G-17)", "group": "intelsat", "lat": 2.4027604331443007, "lon": 152.79065888046455, "alt_km": 35790.954409544254, "timestamp": "2025-12-26T09:30:53.295971+00:00", "meta": {"OBJECT_NAME": "GALAXY 17 (G-17)", "OBJECT_ID": "2007-016B", "EPOCH": "2025-12-25T03:12:43.293888", "MEAN_MOTION": 1.00272001, "ECCENTRICITY": 0.00055995, "INCLINATION": 2.5292, "RA_OF_ASC_NODE": 82.144, "ARG_OF_PERICENTER": 173.1057, "MEAN_ANOMALY": 161.8394, "EPHEMERIS_TYPE": 0, "CLASSIFICATION_TYPE": "U", "NORAD_CAT_ID": 31307, "ELEMENT_SET_NO": 999, "REV_AT_EPOCH": 6805, "BSTAR": 0, "MEAN_MOTION_DOT": -1.86e-06, "MEAN_MOTION_DDOT": 0}, "tle": {"line1": "1 31307U 07016B   25359.13383442 -.00000186  00000+0  00000+0 0  9994", "line2": "2 31307   2.5292  82.1440 0005599 173.1057 161.8394  1.00272001 68051"}}, "geometry": {"type": "Point", "coordinates": [152.79065888046455, 2.4027604331443007]}}, {"type": "Feature", "properties": {"norad_id": 31862, "name": "DIRECTV 10", "group": "intelsat", "lat": 0.005788431086406084, "lon": 135.09563577808416, "alt_km": 35784.33221298094, "timestamp": "2025-12-26T09:30:53.295983+00:00", "meta": {"OBJECT_NAME": "DIRECTV 10", "OBJECT_ID": "2007-032A", "EPOCH": "2025-12-25T09:09:15.831072", "MEAN_MOTION": 1.00280696, "ECCENTRICITY": 7.66e-05, "INCLINATION": 0.0126, "RA_OF_ASC_NODE": 126.575, "ARG_OF_PERICENTER": 111.4706, "MEAN_ANOMALY": 250.6263, "EPHEMERIS_TYPE": 0, "CLASSIFICATION_TYPE": "U", "NORAD_CAT_ID": 31862, "ELEMENT_SET_NO": 999, "REV_AT_EPOCH": 4385, "BSTAR": 0, "MEAN_MOTION_DOT": -8.3e-07, "MEAN_MOTION_DDOT": 0}, "tle": {"line1": "1 31862U 07032A   25359.38143323 -.00000083  00000+0  00000+0 0  9993", "line2": "2 31862   0.0126 126.5750 0000766 111.4706 250.6263  1.00280696 43852"}}, "geometry": {"type": "Point", "coordinates": [135.09563577808416, 0.005788431086406084]}}, {"type": "Feature", "properties": {"norad_id": 32253, "name": "INTELSAT 11 (IS-11)", "group": "intelsat", "lat": -1.8752783933291781, "lon": 43.62840345025446, "alt_km": 36163.613461245586, "timestamp": "2025-12-26T09:30:53.295996+00:00", "meta": {"OBJECT_NAME": "INTELSAT 11 (IS-11)", "OBJECT_ID": "2007-044B", "EPOCH": "2025-12-25T13:02:38.686848", "MEAN_MOTION": 0.99053085, "ECCENTRICITY": 0.0008616, "INCLINATION": 3.1116, "RA_OF_ASC_NODE": 80.8337, "ARG_OF_PERICENTER": 171.4467, "MEAN_ANOMALY": 207.1053, "EPHEMERIS_TYPE": 0, "CLASSIFICATION_TYPE": "U", "NORAD_CAT_ID": 32253, "ELEMENT_SET_NO": 999, "REV_AT_EPOCH": 6673, "BSTAR": 0, "MEAN_MOTION_DOT": -1.97e-06, "MEAN_MOTION_DDOT": 0}, "tle": {"line1": "1 32253U 07044B   25359.54350332 -.00000197  00000+0  00000+0 0  9995", "line2": "2 32253   3.1116  80.8337 0008616 171.4467 207.1053  0.99053085 66738"}}, "geometry": {"type": "Point", "coordinates": [43.62840345025446, -1.8752783933291781]}}, {"type": "Feature", "properties": {"norad_id": 32388, "name": "HORIZONS-2", "group": "intelsat", "lat": 2.139511855050102, "lon": 163.99455942456387, "alt_km": 35795.3430382989, "timestamp": "2025-12-26T09:30:53.296009+00:00", "meta": {"OBJECT_NAME": "HORIZONS-2", "OBJECT_ID": "2007-063B", "EPOCH": "2025-12-25T09:17:22.555104", "MEAN_MOTION": 1.0026947, "ECCENTRICITY": 0.0004798, "INCLINATION": 2.1525, "RA_OF_ASC_NODE": 82.8237, "ARG_OF_PERICENTER": 196.873, "MEAN_ANOMALY": 239.9945, "EPHEMERIS_TYPE": 0, "CLASSIFICATION_TYPE": "U", "NORAD_CAT_ID": 32388, "ELEMENT_SET_NO": 999, "REV_AT_EPOCH": 6607, "BSTAR": 0, "MEAN_MOTION_DOT": -2.33e-06, "MEAN_MOTION_DDOT": 0}, "tle": {"line1": "1 32388U 07063B   25359.38706661 -.00000233  00000+0  00000+0 0  9998", "line2": "2 32388   2.1525  82.8237 0004798 196.8730 239.9945  1.00269470 66072"}}, "geometry": {"type": "Point", "coordinates": [163.99455942456387, 2.139511855050102]}}, {"type": "Feature", "properties": {"norad_id": 32729, "name": "DIRECTV 11", "group": "intelsat", "lat": -0.026798746767932785, "lon": 138.58685421012467, "alt_km": 35787.99509493679, "timestamp": "2025-12-26T09:30:53.296023+00:00", "meta": {"OBJECT_NAME": "DIRECTV 11", "OBJECT_ID": "2008-013A", "EPOCH": "2025-12-24T22:53:59.758368", "MEAN_MOTION": 1.00260442, "ECCENTRICITY": 0.0001047, "INCLINATION": 0.0475, "RA_OF_ASC_NODE": 199.7105, "ARG_OF_PERICENTER": 11.4593, "MEAN_ANOMALY": 126.8496, "EPHEMERIS_TYPE": 0, "CLASSIFICATION_TYPE": "U", "NORAD_CAT_ID": 32729, "ELEMENT_SET_NO": 999, "REV_AT_EPOCH": 4384, "BSTAR": 0, "MEAN_MOTION_DOT": -1.03e-06, "MEAN_MOTION_DDOT": 0}, "tle": {"line1": "1 32729U 08013A   25358.95416387 -.00000103  00000+0  00000+0 0  9994", "line2": "2 32729   0.0475 199.7105 0001047  11.4593 126.8496  1.00260442 43842"}}, "geometry": {"type": "Point", "coordinates": [138.58685421012467, -0.026798746767932785]}}, {"type": "Feature", "properties": {"norad_id": 32951, "name": "GALAXY 18 (G-18)", "group": "intelsat", "lat": 0.03108552140368911, "lon": 114.84730005108945, "alt_km": 35799.3491520197, "timestamp": "2025-12-26T09:30:53.296037+00:00", "meta": {"OBJECT_NAME": "GALAXY 18 (G-18)", "OBJECT_ID": "2008-024A", "EPOCH": "2025-12-26T04:39:38.472192", "MEAN_MOTION": 1.00271919, "ECCENTRICITY": 0.0003218, "INCLINATION": 0.0165, "RA_OF_ASC_NODE": 351.6105, "ARG_OF_PERICENTER": 291.1778, "MEAN_ANOMALY": 119.0627, "EPHEMERIS_TYPE": 0, "CLASSIFICATION_TYPE": "U", "NORAD_CAT_ID": 32951, "ELEMENT_SET_NO": 999, "REV_AT_EPOCH": 4411, "BSTAR": 0, "MEAN_MOTION_DOT": 4.7e-07, "MEAN_MOTION_DDOT": 0}, "tle": {"line1": "1 32951U 08024A   25360.19419528  .00000047  00000+0  00000+0 0  9998", "line2": "2 32951   0.0165 351.6105 0003218 291.1778 119.0627  1.00271919 44110"}}, "geometry": {"type": "Point", "coordinates": [114.84730005108945, 0.03108552140368911]}}]}